LEGION 1                
1 59625U 24081A   26201.87231987  .00002168  00000+0  11351-3 0  9998
2 59625  97.5007 279.3723 0007852 246.1082 113.9329 15.16866999122648
LEGION 2                
1 59626U 24081B   26201.90278697  .00002205  00000+0  11542-3 0  9996
2 59626  97.5007 279.4990 0010663 211.9392 148.1196 15.16846897122652
LEGION 3                
1 60452U 24146A   26201.87291426  .00001655  00000+0  99127-4 0  9992
2 60452  45.0013 209.9548 0007639   5.2969 354.7989 15.15675485107139
LEGION 4                
1 60453U 24146B   26201.60891386  .00002273  00000+0  13090-3 0  9996
2 60453  45.0021 303.2373 0009336 147.1021 213.0440 15.15703469105944
LEGION 5                
1 62900U 25025A   26201.21346788  .00001856  00000+0  10935-3 0  9991
2 62900  45.0013 124.3146 0007831 315.0953  44.9291 15.15720625 79502
LEGION 6                
1 62901U 25025B   26201.93761235  .00002520  00000+0  14353-3 0  9996
2 62901  45.0022  29.5800 0010612 305.7491  54.2400 15.15714741 80757
